{
  "type": "FeatureCollection",
  "features": [
    {
      "type": "Feature",
      "properties": {
        "norad_id": 44333,
        "name": "AT&T T-16",
        "group": "intelsat",
        "lat": -0.0240067480465607,
        "lon": -93.50954321084032,
        "alt_km": 35787.04104169209,
        "timestamp": "2025-12-04T19:33:59.299052+00:00",
        "meta_object_name": "AT&T T-16",
        "meta_object_id": "2019-034A",
        "meta_epoch": "2025-12-04T06:23:50.795232",
        "meta_mean_motion": 1.00268621,
        "meta_eccentricity": 3.516e-05,
        "meta_inclination": 0.0347,
        "meta_ra_of_asc_node": 76.5475,
        "meta_arg_of_pericenter": 97.5301,
        "meta_mean_anomaly": 254.3586,
        "meta_ephemeris_type": 0,
        "meta_classification_type": "U",
        "meta_norad_cat_id": 44333,
        "meta_element_set_no": 999,
        "meta_rev_at_epoch": 2367,
        "meta_bstar": 0,
        "meta_mean_motion_dot": -9.9e-07,
        "meta_mean_motion_ddot": 0,
        "tle_line1": "1 44333U 19034A   25338.26656013 -.00000099  00000+0  00000+0 0  9991",
        "tle_line2": "2 44333   0.0347  76.5475 0000351  97.5301 254.3586  1.00268621 23678"
      },
      "geometry": {
        "type": "Point",
        "coordinates": [
          -93.50954321084032,
          -0.0240067480465607
        ]
      }
    },
    {
      "type": "Feature",
      "properties": {
        "norad_id": 44476,
        "name": "INTELSAT 39 (IS-39)",
        "group": "intelsat",
        "lat": 0.04201849082171654,
        "lon": 69.29474931502821,
        "alt_km": 35786.397366490084,
        "timestamp": "2025-12-04T19:33:59.299062+00:00",
        "meta_object_name": "INTELSAT 39 (IS-39)",
        "meta_object_id": "2019-049B",
        "meta_epoch": "2025-12-04T03:44:50.063136",
        "meta_mean_motion": 1.00270116,
        "meta_eccentricity": 7.888e-05,
        "meta_inclination": 0.0174,
        "meta_ra_of_asc_node": 324.8718,
        "meta_arg_of_pericenter": 192.6163,
        "meta_mean_anomaly": 33.9011,
        "meta_ephemeris_type": 0,
        "meta_classification_type": "U",
        "meta_norad_cat_id": 44476,
        "meta_element_set_no": 999,
        "meta_rev_at_epoch": 2317,
        "meta_bstar": 0,
        "meta_mean_motion_dot": 5e-07,
        "meta_mean_motion_ddot": 0,
        "tle_line1": "1 44476U 19049B   25338.15613499  .00000050  00000+0  00000+0 0  9990",
        "tle_line2": "2 44476   0.0174 324.8718 0000788 192.6163  33.9011  1.00270116 23171"
      },
      "geometry": {
        "type": "Point",
        "coordinates": [
          69.29474931502821,
          0.04201849082171654
        ]
      }
    },
    {
      "type": "Feature",
      "properties": {
        "norad_id": 46114,
        "name": "GALAXY 30 (G-30)",
        "group": "intelsat",
        "lat": -0.04131363399397993,
        "lon": -117.6487758486195,
        "alt_km": 35777.08886959209,
        "timestamp": "2025-12-04T19:33:59.299072+00:00",
        "meta_object_name": "GALAXY 30 (G-30)",
        "meta_object_id": "2020-056C",
        "meta_epoch": "2025-12-04T06:16:58.952352",
        "meta_mean_motion": 1.0026698,
        "meta_eccentricity": 0.00024727,
        "meta_inclination": 0.0157,
        "meta_ra_of_asc_node": 322.8496,
        "meta_arg_of_pericenter": 289.8453,
        "meta_mean_anomaly": 149.8938,
        "meta_ephemeris_type": 0,
        "meta_classification_type": "U",
        "meta_norad_cat_id": 46114,
        "meta_element_set_no": 999,
        "meta_rev_at_epoch": 1933,
        "meta_bstar": 0,
        "meta_mean_motion_dot": 5.3e-07,
        "meta_mean_motion_ddot": 0,
        "tle_line1": "1 46114U 20056C   25338.26179343  .00000053  00000+0  00000+0 0  9991",
        "tle_line2": "2 46114   0.0157 322.8496 0002472 289.8453 149.8938  1.00266980 19339"
      },
      "geometry": {
        "type": "Point",
        "coordinates": [
          -117.6487758486195,
          -0.04131363399397993
        ]
      }
    },
    {
      "type": "Feature",
      "properties": {
        "norad_id": 54026,
        "name": "GALAXY 33 (G-33)",
        "group": "intelsat",
        "lat": -0.033256558294240283,
        "lon": -125.62636717048451,
        "alt_km": 35777.49008754784,
        "timestamp": "2025-12-04T19:33:59.299082+00:00",
        "meta_object_name": "GALAXY 33 (G-33)",
        "meta_object_id": "2022-128A",
        "meta_epoch": "2025-12-04T04:32:00.542688",
        "meta_mean_motion": 1.00272957,
        "meta_eccentricity": 0.00020139,
        "meta_inclination": 0.0134,
        "meta_ra_of_asc_node": 359.762,
        "meta_arg_of_pericenter": 250.3751,
        "meta_mean_anomaly": 118.1476,
        "meta_ephemeris_type": 0,
        "meta_classification_type": "U",
        "meta_norad_cat_id": 54026,
        "meta_element_set_no": 999,
        "meta_rev_at_epoch": 1178,
        "meta_bstar": 0,
        "meta_mean_motion_dot": 9.5e-07,
        "meta_mean_motion_ddot": 0,
        "tle_line1": "1 54026U 22128A   25338.18889517  .00000095  00000+0  00000+0 0  9992",
        "tle_line2": "2 54026   0.0134 359.7620 0002013 250.3751 118.1476  1.00272957 11786"
      },
      "geometry": {
        "type": "Point",
        "coordinates": [
          -125.62636717048451,
          -0.033256558294240283
        ]
      }
    },
    {
      "type": "Feature",
      "properties": {
        "norad_id": 54027,
        "name": "GALAXY 34 (G-34)",
        "group": "intelsat",
        "lat": -0.04852526333469961,
        "lon": -121.57341625083502,
        "alt_km": 35779.84519383471,
        "timestamp": "2025-12-04T19:33:59.299093+00:00",
        "meta_object_name": "GALAXY 34 (G-34)",
        "meta_object_id": "2022-128B",
        "meta_epoch": "2025-12-03T23:24:52.608960",
        "meta_mean_motion": 1.00272182,
        "meta_eccentricity": 0.00014521,
        "meta_inclination": 0.023,
        "meta_ra_of_asc_node": 323.101,
        "meta_arg_of_pericenter": 285.0932,
        "meta_mean_anomaly": 47.148,
        "meta_ephemeris_type": 0,
        "meta_classification_type": "U",
        "meta_norad_cat_id": 54027,
        "meta_element_set_no": 999,
        "meta_rev_at_epoch": 1195,
        "meta_bstar": 0,
        "meta_mean_motion_dot": 0,
        "meta_mean_motion_ddot": 0,
        "tle_line1": "1 54027U 22128B   25337.97560890  .00000000  00000+0  00000+0 0  9995",
        "tle_line2": "2 54027   0.0230 323.1010 0001452 285.0932  47.1480  1.00272182 11959"
      },
      "geometry": {
        "type": "Point",
        "coordinates": [
          -121.57341625083502,
          -0.04852526333469961
        ]
      }
    },
    {
      "type": "Feature",
      "properties": {
        "norad_id": 54243,
        "name": "GALAXY 31 (G-31)",
        "group": "intelsat",
        "lat": -0.025583221595323048,
        "lon": -113.63728206872273,
        "alt_km": 35777.739981372506,
        "timestamp": "2025-12-04T19:33:59.299103+00:00",
        "meta_object_name": "GALAXY 31 (G-31)",
        "meta_object_id": "2022-153A",
        "meta_epoch": "2025-12-03T23:27:14.882112",
        "meta_mean_motion": 1.0027208,
        "meta_eccentricity": 0.00020897,
        "meta_inclination": 0.0112,
        "meta_ra_of_asc_node": 21.6118,
        "meta_arg_of_pericenter": 246.6524,
        "meta_mean_anomaly": 35.6149,
        "meta_ephemeris_type": 0,
        "meta_classification_type": "U",
        "meta_norad_cat_id": 54243,
        "meta_element_set_no": 999,
        "meta_rev_at_epoch": 517,
        "meta_bstar": 0,
        "meta_mean_motion_dot": 3e-07,
        "meta_mean_motion_ddot": 0,
        "tle_line1": "1 54243U 22153A   25337.97725558  .00000030  00000+0  00000+0 0  9990",
        "tle_line2": "2 54243   0.0112  21.6118 0002089 246.6524  35.6149  1.00272080  5172"
      },
      "geometry": {
        "type": "Point",
        "coordinates": [
          -113.63728206872273,
          -0.025583221595323048
        ]
      }
    },
    {
      "type": "Feature",
      "properties": {
        "norad_id": 54244,
        "name": "GALAXY 32 (G-32)",
        "group": "intelsat",
        "lat": -0.027736908389612257,
        "lon": -83.6543773101305,
        "alt_km": 35777.077505368754,
        "timestamp": "2025-12-04T19:33:59.299114+00:00",
        "meta_object_name": "GALAXY 32 (G-32)",
        "meta_object_id": "2022-153B",
        "meta_epoch": "2025-12-03T13:19:23.206080",
        "meta_mean_motion": 1.00270437,
        "meta_eccentricity": 0.00025394,
        "meta_inclination": 0.0105,
        "meta_ra_of_asc_node": 329.1215,
        "meta_arg_of_pericenter": 335.3454,
        "meta_mean_anomaly": 237.0261,
        "meta_ephemeris_type": 0,
        "meta_classification_type": "U",
        "meta_norad_cat_id": 54244,
        "meta_element_set_no": 999,
        "meta_rev_at_epoch": 1118,
        "meta_bstar": 0,
        "meta_mean_motion_dot": -1.56e-06,
        "meta_mean_motion_ddot": 0,
        "tle_line1": "1 54244U 22153B   25337.55512970 -.00000156  00000+0  00000+0 0  9997",
        "tle_line2": "2 54244   0.0105 329.1215 0002539 335.3454 237.0261  1.00270437 11182"
      },
      "geometry": {
        "type": "Point",
        "coordinates": [
          -83.6543773101305,
          -0.027736908389612257
        ]
      }
    }
  ]
}